{
  "links" : {
    "next" : "https://api.nasa.gov/neo/rest/v1/feed?start_date=1997-12-23&end_date=1997-12-23&detailed=true&api_key=t0TVs3DtDT2H8Oy2Zy8m2eVrNsAVKAexjcZXUckd",
    "prev" : "https://api.nasa.gov/neo/rest/v1/feed?start_date=1997-12-21&end_date=1997-12-21&detailed=true&api_key=t0TVs3DtDT2H8Oy2Zy8m2eVrNsAVKAexjcZXUckd",
    "self" : "https://api.nasa.gov/neo/rest/v1/feed?start_date=1997-12-22&end_date=1997-12-22&detailed=true&api_key=t0TVs3DtDT2H8Oy2Zy8m2eVrNsAVKAexjcZXUckd"
  },
  "element_count" : 1,
  "near_earth_objects" : {
    "1997-12-22" : [ {
      "links" : {
        "self" : "https://api.nasa.gov/neo/rest/v1/neo/3092220?api_key=t0TVs3DtDT2H8Oy2Zy8m2eVrNsAVKAexjcZXUckd"
      },
      "neo_reference_id" : "3092220",
      "name" : "(1999 GR6)",
      "nasa_jpl_url" : "http://ssd.jpl.nasa.gov/sbdb.cgi?sstr=3092220",
      "absolute_magnitude_h" : 20.0,
      "estimated_diameter" : {
        "kilometers" : {
          "estimated_diameter_min" : 0.2658,
          "estimated_diameter_max" : 0.5943468684
        },
        "meters" : {
          "estimated_diameter_min" : 265.8,
          "estimated_diameter_max" : 594.3468684194
        },
        "miles" : {
          "estimated_diameter_min" : 0.1651604118,
          "estimated_diameter_max" : 0.369309908
        },
        "feet" : {
          "estimated_diameter_min" : 872.047272,
          "estimated_diameter_max" : 1949.9569797852
        }
      },
      "is_potentially_hazardous_asteroid" : false,
      "close_approach_data" : [ {
        "close_approach_date" : "1997-12-22",
        "epoch_date_close_approach" : 882777600000,
        "relative_velocity" : {
          "kilometers_per_second" : "31.7026712442",
          "kilometers_per_hour" : "114129.616479277",
          "miles_per_hour" : "70915.7053062485"
        },
        "miss_distance" : {
          "astronomical" : "0.4929140414",
          "lunar" : "191.743560791",
          "kilometers" : "73738896",
          "miles" : "45819224"
        },
        "orbiting_body" : "Earth"
      } ],
      "orbital_data" : {
        "orbit_id" : "20",
        "orbit_determination_date" : "2017-04-06 09:17:29",
        "orbit_uncertainty" : "0",
        "minimum_orbit_intersection" : ".172297",
        "jupiter_tisserand_invariant" : "4.451",
        "epoch_osculation" : "2458000.5",
        "eccentricity" : ".7611119344262838",
        "semi_major_axis" : "1.342598685649502",
        "inclination" : "29.17114366347807",
        "ascending_node_longitude" : "180.8670964610377",
        "orbital_period" : "568.2216192649554",
        "perihelion_distance" : ".3207308028566236",
        "perihelion_argument" : "146.5873455953996",
        "aphelion_distance" : "2.364466568442381",
        "perihelion_time" : "2458155.610250849890",
        "mean_anomaly" : "261.7290289338273",
        "mean_motion" : ".6335556194882054",
        "equinox" : "J2000"
      }
    } ]
  }
}